[{"OBJECT_NAME":"STARLINK-4415","OBJECT_ID":"2022-099A","EPOCH":"2026-03-09T21:19:01.474464","MEAN_MOTION":15.05676635,"ECCENTRICITY":2.971e-5,"INCLINATION":97.6028,"RA_OF_ASC_NODE":191.4147,"ARG_OF_PERICENTER":207.4645,"MEAN_ANOMALY":152.6566,"EPHEMERIS_TYPE":0,"CLASSIFICATION_TYPE":"U","NORAD_CAT_ID":53465,"ELEMENT_SET_NO":999,"REV_AT_EPOCH":19606,"BSTAR":0.00068857013,"MEAN_MOTION_DOT":9.895e-5,"MEAN_MOTION_DDOT":0},{"OBJECT_NAME":"OBJECT R","OBJECT_ID":"2021-022R","EPOCH":"2026-03-09T22:54:37.456416","MEAN_MOTION":15.08912229,"ECCENTRICITY":0.00182027,"INCLINATION":97.3728,"RA_OF_ASC_NODE":308.5333,"ARG_OF_PERICENTER":149.1845,"MEAN_ANOMALY":211.0456,"EPHEMERIS_TYPE":0,"CLASSIFICATION_TYPE":"U","NORAD_CAT_ID":47947,"ELEMENT_SET_NO":999,"REV_AT_EPOCH":27304,"BSTAR":2.1057411e-5,"MEAN_MOTION_DOT":2.72e-6,"MEAN_MOTION_DDOT":0}]
